1 41975U 17008AD  21354.18263834  .00007197  00000-0  25583-3 0  9992
2 41975  97.3021  58.5997 0008717 134.9981 225.1967 15.29263077269349
1 41975U 17008AD  21354.44437095  .00008006  00000-0  28423-3 0  9999
2 41975  97.3021  58.8566 0008727 134.1251 226.0709 15.29268453269502
1 41975U 17008AD  21354.77153729  .00007177  00000-0  25507-3 0  9992
2 41975  97.3019  59.1777 0008743 133.1979 226.9993 15.29269828269557
1 41975U 17008AD  21355.49129699  .00007744  00000-0  27492-3 0  9996
2 41975  97.3017  59.8842 0008785 130.8745 229.3258 15.29281748269541
1 41975U 17008AD  21355.49129699  .00007744  00000-0  27492-3 0  9996
2 41975  97.3017  59.8842 0008785 130.8745 229.3258 15.29281748269664
1 41975U 17008AD  21355.75302699  .00006538  00000-0  23253-3 0  9999
2 41975  97.3017  60.1412 0008805 130.0629 230.1385 15.29283657269705
1 41975U 17008AD  21356.40734824  .00007032  00000-0  24981-3 0  9990
2 41975  97.3015  60.7835 0008840 128.1207 232.0832 15.29293908269806
1 41975U 17008AD  21356.73450736  .00007439  00000-0  26405-3 0  9997
2 41975  97.3014  61.1046 0008852 127.1794 233.0256 15.29299433269739
1 41975U 17008AD  21356.73450736  .00007439  00000-0  26405-3 0  9997
2 41975  97.3014  61.1046 0008852 127.1794 233.0256 15.29299433269852
1 41975U 17008AD  21357.45425363  .00007635  00000-0  27082-3 0  9995
2 41975  97.3011  61.8109 0008881 125.1095 235.0979 15.29310309269962
1 41975U 17008AD  21357.71597835  .00007246  00000-0  25714-3 0  9996
2 41975  97.3010  62.0678 0008897 124.3604 235.8479 15.29313818270007
1 41975U 17008AD  21358.17399434  .00006802  00000-0  24151-3 0  9993
2 41975  97.3010  62.5174 0008914 123.0337 237.1761 15.29320773269951
1 41975U 17008AD  21358.43571711  .00007119  00000-0  25259-3 0  9994
2 41975  97.3010  62.7743 0008934 122.2259 237.9849 15.29325061270111
1 41975U 17008AD  21358.76286912  .00007636  00000-0  27070-3 0  9993
2 41975  97.3009  63.0953 0008971 121.2074 239.0046 15.29331350270166
1 41975U 17008AD  21359.41717080  .00007312  00000-0  25925-3 0  9999
2 41975  97.3009  63.7375 0008997 119.1780 241.0362 15.29340429270261
1 41975U 17008AD  21359.61346059  .00007563  00000-0  26801-3 0  9997
2 41975  97.3010  63.9301 0008999 118.5599 241.6549 15.29343735270296
1 41975U 17008AD  21360.13689806  .00007464  00000-0  26448-3 0  9993
2 41975  97.3009  64.4440 0009035 117.1122 243.1041 15.29350837270254
1 41975U 17008AD  21360.13689806  .00007464  00000-0  26448-3 0  9993
2 41975  97.3009  64.4440 0009035 117.1122 243.1041 15.29350837270377
1 41975U 17008AD  21360.66033327  .00006736  00000-0  23894-3 0  9995
2 41975  97.3008  64.9577 0009065 115.5885 244.6293 15.29357021270459
1 41975U 17008AD  21361.44548100  .00006398  00000-0  22701-3 0  9992
2 41975  97.3010  65.7286 0009053 113.1486 247.0710 15.29367600270451
1 41975U 17008AD  21361.44548100  .00006398  00000-0  22701-3 0  9992
2 41975  97.3010  65.7286 0009053 113.1486 247.0710 15.29367600270574
1 41975U 17008AD  21361.70719623  .00006250  00000-0  22181-3 0  9990
2 41975  97.3011  65.9856 0009039 112.5185 247.7013 15.29370286270615
1 41975U 17008AD  21362.16519525  .00007598  00000-0  26895-3 0  9992
2 41975  97.3012  66.4353 0009060 111.1224 249.0986 15.29379098270688
1 41975U 17008AD  21362.75404700  .00009032  00000-0  31906-3 0  9999
2 41975  97.3013  67.0134 0009112 109.3973 250.8254 15.29391320270658
1 41975U 17008AD  21362.75404700  .00009032  00000-0  31906-3 0  9999
2 41975  97.3013  67.0134 0009112 109.3973 250.8254 15.29391320270771
1 41975U 17008AD  21363.40832285  .00007637  00000-0  27015-3 0  9990
2 41975  97.3014  67.6558 0009133 107.5055 252.7184 15.29400207270871
1 41975U 17008AD  21363.73545932  .00007351  00000-0  26011-3 0  9994
2 41975  97.3015  67.9770 0009110 106.5094 253.7148 15.29405057270923
1 41975U 17008AD  21364.12802148  .00007504  00000-0  26541-3 0  9991
2 41975  97.3015  68.3624 0009111 105.3916 254.8332 15.29411256270865
1 41975U 17008AD  21364.12802148  .00007504  00000-0  26541-3 0  9991
2 41975  97.3015  68.3624 0009111 105.3916 254.8332 15.29411256270988
1 41975U 17008AD  21364.71686228  .00006779  00000-0  23999-3 0  9992
2 41975  97.3014  68.9405 0009120 103.6372 256.5885 15.29418636271079
1 41975U 17008AD  21365.17484779  .00005932  00000-0  21031-3 0  9995
2 41975  97.3014  69.3902 0009115 102.1009 258.1254 15.29423461271026
1 41975U 17008AD  21365.17484779  .00005932  00000-0  21031-3 0  9995
2 41975  97.3014  69.3902 0009115 102.1009 258.1254 15.29423461271149
1 41975U 17008AD  21365.76368503  .00004457  00000-0  15867-3 0  9997
2 41975  97.3012  69.9684 0009095 100.4189 259.8077 15.29426671271234
1 41975U 17008AD  22001.74507513  .00005145  00000-0  18267-3 0  9991
2 41975  97.3009  70.9318 0009122  97.5433 262.6844 15.29437659271260
1 41975U 17008AD  22001.74507513  .00005145  00000-0  18267-3 0  9991
2 41975  97.3009  70.9318 0009122  97.5433 262.6844 15.29437659271383
